0 OPS 7044 (VELA 12)
1 04366U 70027A   25162.89116127 -.00000305  00000-0  00000-0 0  9995
2 04366  87.5969   0.9935 7753526  72.3352   1.1488  0.21456810 40573
0 OPS 7033 (VELA 11)
1  4368U 70027B   25162.90992538 -.00000395  00000-0  00000+0 0  9995
2  4368  86.1941 359.2669 7824343  72.0060   0.7294  0.21504509 36870
0 COSMOS 1500
1 14372U 83099A   25163.02008995  .12617911 -12821-5  17091-3 0  9995
2 14372  82.4518 299.7243 0012295 276.1066 202.9749 16.48578677282734
0 COSMOS 1666
1 15889U 85058A   25166.38264313  .18140549 -12561-5  17110-3 0  9993
2 15889  82.4378 297.0719 0017065 286.4977 132.9625 16.50472833187645
0 SL-24 DEB
1 28812U 05031D   25166.36018682  .20662041  31089-5  32228-3 0  9991
2 28812  98.0353  81.6734 0008750 238.6359 270.3673 16.48079652 83957
0 COSMOS 2251 DEB
1 34920U 93036ADR 25166.53853167  .00766031  00000-0  67227-2 0  9996
2 34920  73.9701   3.4264 0010700 196.1956 163.8925 15.66359650857438
0 NOAA 16 DEB
1 41375U 00055JU  25163.34767279  .06532411  00000-0  26283-1 0  9996
2 41375  98.8666   0.6581 0016280 274.8895  85.0510 15.82000523487470
0 XPNAV-1
1 41841U 16066A   25162.34073850  .14626642  25244-5  31677-3 0  9993
2 41841  97.2943 199.9075 0010851 263.6962 110.8025 16.45985878479203
0 FLOCK 3S 1
1 43769U 18099M   25166.04943847  .12747532  25575-5  43891-3 0  9993
2 43769  97.4056 235.2593 0017578 255.5499 104.3851 16.42650578358404
0 STARLINK-1600
1 46161U 20057AW  25165.72575147  .20918334  12526-4  34767-3 0  9999
2 46161  53.0065 351.8125 0009938 255.7831 168.5342 16.47327399267560
0 KEPLER-4 (ANTILLES)
1 46499U 20068P   25162.88496032  .00854553  38780-3  11603-2 0  9996
2 46499  97.7601 165.5028 0009242 149.7305 210.4511 16.06347646260529
0 STARLINK-1708
1 46580U 20070BA  25163.77838052  .13110756  12537-4  41043-3 0  9990
2 46580  53.0147 234.7275 0004616 302.2197 161.1944 16.44781409259855
0 STARLINK-1862
1 47149U 20088AD  25165.16967914  .10385543  12360-4  78618-3 0  9993
2 47149  53.0221  15.0118 0007680 274.0693 189.6695 16.39588131252343
0 STARLINK-1957
1 47558U 21009L   25161.34818896  .10714600  12392-4  62985-3 0  9996
2 47558  53.0308 105.7462 0003661 253.3945 249.1172 16.41714577241165
0 STARLINK-2010
1 47634U 21012Q   25166.51484087  .11143751  12457-4  57100-3 0  9999
2 47634  53.0341 156.5851 0002396 296.7176 160.8124 16.42782429239675
0 OBJECT AD
1 47959U 21022AD  25160.45426279  .07940347  25506-5  90589-3 0  9995
2 47959  97.3899  75.6235 0011032 227.2558 132.7812 16.36806138232695
0 ATLAS 5 CENTAUR DEB
1 49368U 18079FV  25161.90368572 -.00000093  00000-0  00000-0 0  9993
2 49368  12.1789  88.5109 4344838 210.0375 115.6332  1.77099486  7541
0 BRO-7
1 52174U 22033T   25162.76230045  .11393183  24806-5  44250-3 0  9994
2 52174  97.2708 262.3985 0016745 266.7450  93.1935 16.42172300179386
0 STARLINK-4668
1 53596U 22104J   25164.73799872  .41423365  12442-4  24806-2 0  9994
2 53596  53.1843 280.9650 0005723 304.0285 211.5534 16.41526054155593
0 USA 340
1 55138U 22144E   25163.08611111 -.00000216  00000-0  00000-0 0  9991
2 55138   4.4734  66.2414 0161279 302.5041 261.4999  0.99919047  8039
0 STARLINK-30180
1 57435U 23105F   25166.64677956  .11420456  90322-5  55201-2 0  9994
2 57435  42.9727 229.8493 0010651  24.2412 110.6703 16.20113822105989
0 STARLINK-30173
1 57439U 23105K   25161.55488226  .27074672  92371-5  45908-2 0  9994
2 57439  42.9635 245.0349 0007848   1.5675 130.2128 16.32028811105260
0 STARLINK-11125
1 59753U 24091A   25165.29068384  .19640483  11864-4  54873-2 0  9992
2 59753  53.1256  84.1941 0010776 222.6585 279.9827 16.26905617 63445
0 VELA 7/8 INTERSTAGE
1 60000U 67040G   25166.67709270 -.00000123  00000-0  00000-0 0  9998
2 60000  18.6917 209.8579 7796801 338.8120   0.8002  0.51050668  5133
0 STARLINK-11208
1 60311U 24133L   25166.16096387  .25682834  12160-4  34763-2 0  9991
2 60311  53.1363  20.5094 0011906 259.3130 197.4882 16.34303904 51620
0 CZ-6A DEB
1 61321U 24140UJ  25166.18571070  .14157989 -10215-5  73012-2 0  9997
2 61321  88.9250 309.7442 0023913 295.4955  64.3870 16.19704690 42730
0 ELECTRON R/B
1 64232U 25118C   25162.61083509  .11505920  10807-4  34541-3 0  9995
2 64232  58.9851 180.7417 0068432 278.6129 185.4289 16.34335593  1360
0 ELECTRON DEB
1 64343U 25125D   25163.14389056  .19862338  62886-5  35037-1 0  9992
2 64343  42.0238  64.6207 0204325 234.1039 277.4123 15.73018143    70
