OBJECT_NAME,NORAD_CAT_ID,EPOCH,MEAN_MOTION,ECCENTRICITY,INCLINATION,RA_OF_ASC_NODE,ARG_OF_PERICENTER,MEAN_ANOMALY,BSTAR,SEMIMAJOR_AXIS,PERIOD,APOAPSIS,PERIAPSIS
OBJECT AD,47959,2025-06-09 10:54:08.305056,16.36806138,0.0011032,97.3899,75.6235,227.2558,132.7812,0.00090589,6552.449,87.976,181.543,167.086
STARLINK-1957,47558,2025-06-10 08:21:23.526144,16.41714577,0.0003661,53.0308,105.7462,253.3945,249.1172,0.00062985,6539.382,87.713,163.642,158.853
STARLINK-30173,57439,2025-06-10 13:19:01.827264,16.32028811,0.0007848,42.9635,245.0349,1.5675,130.2128,0.0045908,6565.23,88.234,192.248,181.943
ATLAS 5 CENTAUR DEB,49368,2025-06-10 21:41:18.446208,1.77099486,0.43448381,12.1789,88.5109,210.0375,115.6332,0.0,28857.385,813.102,35017.317,9941.183
XPNAV-1,41841,2025-06-11 08:10:39.806400,16.45985878,0.0010851,97.2943,199.9075,263.6962,110.8025,0.00031677,6528.065,87.486,157.013,142.846
ELECTRON R/B,64232,2025-06-11 14:39:36.151776,16.34335593,0.0068432,58.9851,180.7417,278.6129,185.4289,0.00034541,6559.051,88.109,225.801,136.031
BRO-7,52174,2025-06-11 18:17:42.758880,16.421723,0.0016745,97.2708,262.3985,266.745,93.1935,0.0004425,6538.167,87.689,170.98,149.084
KEPLER-4 (ANTILLES),46499,2025-06-11 21:14:20.571648,16.06347646,0.0009242,97.7601,165.5028,149.7305,210.4511,0.0011603,6635.019,89.644,263.016,250.752
OPS 7044 (VELA 12),4366,2025-06-11 21:23:16.333728,0.2145681,0.7753526,87.5969,0.9935,72.3352,1.1488,0.0,117857.82,6711.156,202861.052,20098.318
OPS 7033 (VELA 11),4368,2025-06-11 21:50:17.552832,0.21504509,0.7824343,86.1941,359.2669,72.006,0.7294,0.0,117683.476,6696.27,203384.929,19225.753
COSMOS 1500,14372,2025-06-12 00:28:55.771680,16.48578677,0.0012295,82.4518,299.7243,276.1066,202.9749,0.00017091,6521.218,87.348,151.101,135.065
USA 340,55138,2025-06-12 02:03:59.999904,0.99919047,0.0161279,4.4734,66.2414,302.5041,261.4999,0.0,42263.908,1441.167,36567.401,35204.145
ELECTRON DEB,64343,2025-06-12 03:27:12.144384,15.73018143,0.0204325,42.0238,64.6207,234.1039,277.4123,0.035037,6728.414,91.544,487.757,212.8
NOAA 16 DEB,41375,2025-06-12 08:20:38.929056,15.82000523,0.001628,98.8666,0.6581,274.8895,85.051,0.026283,6702.921,91.024,335.698,313.874
STARLINK-1708,46580,2025-06-12 18:40:52.076928,16.44781409,0.0004616,53.0147,234.7275,302.2197,161.1944,0.00041043,6531.251,87.55,156.131,150.101
STARLINK-4668,53596,2025-06-13 17:42:43.089408,16.41526054,0.0005723,53.1843,280.965,304.0285,211.5534,0.0024806,6539.883,87.723,165.491,158.005
STARLINK-1862,47149,2025-06-14 04:04:20.277696,16.39588131,0.000768,53.0221,15.0118,274.0693,189.6695,0.00078618,6545.035,87.827,171.927,161.874
STARLINK-11125,59753,2025-06-14 06:58:35.083776,16.26905617,0.0010776,53.1256,84.1941,222.6585,279.9827,0.0054873,6579.006,88.512,207.96,193.781
STARLINK-1600,46161,2025-06-14 17:25:04.927008,16.47327399,0.0009938,53.0065,351.8125,255.7831,168.5342,0.00034767,6524.52,87.414,152.869,139.901
FLOCK 3S 1,43769,2025-06-15 01:11:11.483808,16.42650578,0.0017578,97.4056,235.2593,255.5499,104.3851,0.00043891,6536.898,87.663,170.254,147.273
STARLINK-11208,60311,2025-06-15 03:51:47.278368,16.34303904,0.0011906,53.1363,20.5094,259.313,197.4882,0.0034763,6559.136,88.111,188.81,173.192
CZ-6A DEB,61321,2025-06-15 04:27:25.404480,16.1970469,0.0023913,88.925,309.7442,295.4955,64.387,0.0073012,6598.491,88.905,236.135,204.577
SL-24 DEB,28812,2025-06-15 08:38:40.141248,16.48079652,0.000875,98.0353,81.6734,238.6359,270.3673,0.00032228,6522.534,87.374,150.107,138.692
COSMOS 1666,15889,2025-06-15 09:11:00.366432,16.50472833,0.0017065,82.4378,297.0719,286.4977,132.9625,0.0001711,6516.228,87.248,149.213,126.973
STARLINK-2010,47634,2025-06-15 12:21:22.251168,16.42782429,0.0002396,53.0341,156.5851,296.7176,160.8124,0.000571,6536.548,87.656,159.979,156.847
COSMOS 2251 DEB,34920,2025-06-15 12:55:29.136288,15.6635965,0.00107,73.9701,3.4264,196.1956,163.8925,0.0067227,6747.468,91.933,376.553,362.113
STARLINK-30180,57435,2025-06-15 15:31:21.753984,16.20113822,0.0010651,42.9727,229.8493,24.2412,110.6703,0.0055201,6597.38,88.883,226.272,212.218
VELA 7/8 INTERSTAGE,60000,2025-06-15 16:15:00.809280,0.51050668,0.7796801,18.6917,209.8579,338.812,0.8002,0.0,66130.36,2820.727,111312.751,8191.699
